"MEAN_MOTION","ECCENTRICITY","INCLINATION","RA_OF_ASC_NODE","ARG_OF_PERICENTER","MEAN_ANOMALY","SEMIMAJOR_AXIS","PERIOD","APOAPSIS","PERIAPSIS","OBJECT_TYPE","RCS_SIZE","OBJECT_AGE","CENT_FOCUS_DIST"
14.242689,0.0132639,98.9465,44.4107,72.6948,288.8692,7189.089,101.105,906.309,715.598,"DEBRIS","SMALL",25,95.3553575871
13.92799531,0.0153005,98.796,34.998,297.505,61.0631,7296.973,103.389,1030.486,807.191,"DEBRIS","SMALL",25,111.6473353865
14.0718685,0.0132879,98.3469,322.0368,42.9972,22.2622,7247.151,102.332,965.316,772.717,"DEBRIS","SMALL",25,96.2994177729
14.00878861,0.0176565,97.9618,347.139,315.8112,42.9066,7268.89,102.793,1019.099,762.412,"DEBRIS","SMALL",25,128.343156285
14.17370063,0.0041041,98.9619,299.624,302.8848,56.838,7212.398,101.597,863.863,804.662,"DEBRIS","SMALL",25,29.6004026318
12.78853486,0.0065608,66.0645,192.5707,345.5694,14.3445,7724.22,112.601,1396.762,1295.408,"DEBRIS","SMALL",32,50.677062576
12.36993272,0.1209712,65.8175,154.9495,237.1889,110.6938,7897.512,116.411,2474.748,564.005,"DEBRIS","SMALL",32,955.3715036544
12.51202185,0.0055214,82.4636,134.6113,66.3381,294.3485,7837.608,115.089,1502.747,1416.198,"DEBRIS","SMALL",11,43.2745688112
12.4799579,0.0051428,82.4733,139.1332,19.31,340.9916,7851.026,115.385,1513.267,1432.515,"DEBRIS","SMALL",11,40.3762565128
11.50476739,0.179782,51.4717,142.7157,324.2477,25.0013,8288.64,125.166,3400.653,420.357,"DEBRIS","SMALL",13,1490.14827648
10.65163337,0.1532399,51.6012,21.842,130.0672,244.494,8725.514,135.191,3684.476,1010.282,"DEBRIS","SMALL",13,1337.0968928086
12.46221187,0.009603,101.6506,218.2098,158.1694,202.3508,7858.478,115.549,1555.808,1404.878,"DEBRIS","SMALL",51,75.464964234
14.57629789,0.0045954,74.0395,276.7152,35.1822,85.8716,7078.975,98.791,733.37,668.309,"DEBRIS","SMALL",31,32.530721715
14.84935217,0.0007011,74.0147,173.0641,178.6399,181.48,6991.926,96.974,618.693,608.889,"DEBRIS","SMALL",31,4.9020393186
14.92865134,0.0054233,74.0451,17.8593,73.8433,286.871,6967.144,96.459,626.794,551.224,"DEBRIS","SMALL",31,37.7849120552
14.06328606,0.0200072,74.089,323.2437,8.8695,165.2929,7250.1,102.394,1017.019,726.91,"DEBRIS","SMALL",31,145.05420072
4.33099276,0.5694684,65.1041,16.8529,336.2734,5.5437,15898.038,332.487,18573.334,466.473,"DEBRIS","SMALL",16,9053.4302629992
13.34220297,0.0058199,100.3864,85.66,292.5103,66.9866,7509.024,107.928,1174.591,1087.187,"DEBRIS","SMALL",58,43.7017687776
14.89812434,0.001028,97.929,65.6025,282.2206,77.7859,6976.658,96.656,605.695,591.351,"DEBRIS","SMALL",6,7.172004424
15.01918176,0.0056576,97.8032,52.2224,356.8473,3.2386,6939.119,95.877,600.243,521.725,"DEBRIS","SMALL",6,39.2587596544
14.84861912,0.0002776,97.8858,352.7939,13.8875,346.2415,6992.156,96.979,615.962,612.08,"DEBRIS","SMALL",30,1.9410225056
14.82345386,0.0003771,97.8951,351.7165,126.8278,233.3281,7000.068,97.143,624.572,619.293,"DEBRIS","SMALL",30,2.6397256428
14.82259711,0.000116,97.9412,353.9544,30.7956,329.3324,7000.337,97.149,623.014,621.39,"DEBRIS","SMALL",30,0.812039092
14.83251927,0.0004052,97.931,354.0714,244.704,115.3754,6997.215,97.084,621.915,616.245,"DEBRIS","SMALL",30,2.835271518
14.83399943,0.0002203,97.8869,352.5758,319.1029,41.002,6996.75,97.074,620.156,617.073,"DEBRIS","SMALL",30,1.541384025
14.83130514,6.88e-05,97.9061,349.7334,276.5894,83.5241,6997.597,97.092,619.943,618.981,"DEBRIS","SMALL",30,0.4814346736
14.83637934,0.0002206,97.897,352.8393,102.9858,257.1603,6996.001,97.059,619.41,616.323,"DEBRIS","SMALL",30,1.5433178206
14.83315395,0.0001831,97.9111,352.9377,121.0051,239.1343,6997.016,97.08,620.162,617.599,"DEBRIS","SMALL",30,1.2811536296
14.83406126,0.0010447,97.9124,353.5113,107.3176,252.9182,6996.73,97.074,625.905,611.286,"DEBRIS","SMALL",30,7.309483831
14.82836933,0.0001586,97.8888,352.8419,355.0324,5.0873,6998.521,97.111,621.496,619.276,"DEBRIS","SMALL",30,1.1099654306
14.83422208,0.0008894,97.8911,352.2773,126.1207,234.0831,6996.68,97.073,624.768,612.322,"DEBRIS","SMALL",30,6.222847192
14.81226715,0.0004256,97.8958,351.5865,140.6798,219.4724,7003.592,97.217,628.437,622.476,"DEBRIS","SMALL",30,2.9807287552
14.54821351,0.0009591,98.3158,2.4558,25.7802,334.3871,7088.082,98.981,716.745,703.149,"DEBRIS","SMALL",9,6.7981794462
14.81193092,0.0004293,97.9516,354.2974,109.9125,250.255,7003.698,97.219,628.569,622.556,"DEBRIS","SMALL",30,3.0066875514
14.82516258,0.0004118,97.8957,352.5155,104.9395,255.2275,6999.53,97.132,624.277,618.512,"DEBRIS","SMALL",30,2.882406454
14.82531134,0.0006733,97.9054,352.4946,126.5842,233.5992,6999.483,97.131,626.061,616.635,"DEBRIS","SMALL",30,4.7127519039
14.82768157,0.0005648,97.9064,352.4614,190.5867,169.5228,6998.737,97.116,624.555,616.649,"DEBRIS","SMALL",30,3.9528866576
14.82739681,0.0003151,97.911,353.1909,102.3953,257.7613,6998.827,97.118,622.897,618.486,"DEBRIS","SMALL",30,2.2053303877
14.81770239,0.0002806,97.8945,351.8257,203.7583,156.3501,7001.879,97.181,625.709,621.779,"DEBRIS","SMALL",30,1.9647272474
14.83438497,0.0002259,97.9063,351.6025,242.3894,117.7091,6996.628,97.072,620.074,616.913,"DEBRIS","SMALL",30,1.5805382652
14.83092746,0.0005227,97.8984,352.767,177.7096,182.4142,6997.716,97.094,623.239,615.923,"DEBRIS","SMALL",30,3.6577061532
14.82681342,0.0005597,97.9098,350.1185,318.2895,41.7891,6999.01,97.121,624.793,616.958,"DEBRIS","SMALL",30,3.917345897
14.82575485,9.85e-05,97.9008,352.1494,268.7168,91.3932,6999.343,97.128,621.898,620.519,"DEBRIS","SMALL",30,0.6894352855
14.83617838,0.0005318,97.9205,354.4021,237.5707,122.4993,6996.065,97.06,621.65,614.209,"DEBRIS","SMALL",30,3.720507367
14.83472382,0.0006328,97.8981,353.1486,88.3962,271.7977,6996.522,97.07,622.814,613.959,"DEBRIS","SMALL",30,4.4273991216
15.09797516,0.0025058,28.9911,63.0644,92.9847,267.3621,6914.955,95.377,554.148,519.493,"DEBRIS","SMALL",4,17.327494239
11.25284743,0.1555194,51.4573,195.0526,286.975,56.6784,8411.889,127.968,3341.966,725.542,"DEBRIS","SMALL",13,1308.2119301466
12.43010894,0.0014398,82.4962,272.3189,285.4152,74.5337,7872.002,115.848,1505.202,1482.533,"TBA","SMALL",4,11.3341084796
15.21968072,0.0006036,97.4364,41.5532,96.6312,322.423,6878.042,94.614,504.058,495.755,"PAYLOAD","SMALL",4,4.1515861512
15.22566175,0.0039715,60.682,141.1578,120.1056,240.3977,6876.24,94.577,525.414,470.796,"PAYLOAD","SMALL",3,27.30898716
15.22273862,0.0039742,60.6858,140.5409,116.3251,244.1926,6877.121,94.595,526.317,471.655,"PAYLOAD","SMALL",3,27.3310542782
15.28732341,0.0033574,60.6839,138.4419,113.85,246.6114,6857.738,94.196,502.627,456.579,"TBA","SMALL",3,23.0241695612
15.23881634,0.0041266,60.6833,138.8522,112.7697,247.7759,6872.283,94.496,522.507,465.789,"PAYLOAD","SMALL",3,28.3591630278
15.24239189,0.0040884,60.6842,138.1354,109.2561,251.2957,6871.208,94.473,521.165,464.981,"PAYLOAD","SMALL",3,28.0922467872
15.23912828,0.0039267,60.6836,140.5248,107.7894,252.7484,6872.189,94.494,521.039,467.069,"TBA","SMALL",3,26.9850245463
15.2141796,0.0042609,60.682,141.7681,120.4431,240.0875,6879.7,94.649,530.878,472.251,"TBA","SMALL",3,29.31371373
15.21436004,0.0042762,60.6821,141.7413,120.0178,240.5162,6879.645,94.647,530.929,472.092,"TBA","SMALL",3,29.418737949
15.21892306,0.0040565,60.6845,141.0929,118.2251,242.294,6878.27,94.619,528.037,472.233,"PAYLOAD","SMALL",3,27.901702255
15.22438034,0.0040054,60.6847,139.7357,116.7595,243.7598,6876.626,94.585,526.035,470.948,"TBA","SMALL",3,27.5436377804
14.81585443,0.0002057,97.8868,351.3076,122.8026,237.3385,7002.461,97.193,625.767,622.886,"DEBRIS","SMALL",30,1.4404062277
14.82730076,0.000416,97.905,349.1859,220.4584,139.632,6998.857,97.118,623.633,617.81,"DEBRIS","SMALL",30,2.911524512
14.82649758,0.0011961,97.9223,353.2353,182.6248,177.4904,6999.11,97.123,629.346,612.603,"DEBRIS","SMALL",30,8.371635471
14.81981868,0.0008771,97.9467,353.5245,138.2435,221.9449,7001.212,97.167,629.218,616.937,"DEBRIS","SMALL",30,6.1407630452
14.82948216,0.0006389,97.8997,352.6203,211.4187,148.6645,6998.17,97.104,624.507,615.564,"DEBRIS","SMALL",30,4.471130813
14.83645029,0.0004256,97.9047,352.6656,210.5835,149.5132,6995.979,97.058,620.822,614.867,"DEBRIS","SMALL",30,2.9774886624
14.83000039,0.0002421,97.8944,352.6266,149.1423,210.9933,6998.007,97.1,621.567,618.178,"DEBRIS","SMALL",30,1.6942174947
11.2225471,0.1884575,51.4448,177.1019,293.2431,48.1325,8427.024,128.313,3637.025,460.753,"DEBRIS","SMALL",13,1588.13587548
11.52039118,0.1856689,51.456,130.2555,332.4968,18.8466,8281.144,124.996,3440.56,365.458,"DEBRIS","SMALL",13,1537.5508972216
11.23346344,0.1915463,51.4232,163.6481,306.637,37.2834,8421.563,128.188,3656.548,430.309,"DEBRIS","SMALL",13,1613.1192328669
12.03535773,0.1269453,51.4552,98.9585,350.2929,7.5347,8043.206,119.647,2686.118,644.023,"DEBRIS","SMALL",13,1021.0471986318
11.53190649,0.1221591,51.6728,138.4911,306.0815,43.2775,8275.631,124.871,2908.439,886.552,"DEBRIS","SMALL",13,1010.9436348921
11.15321942,0.1499321,51.4521,208.5828,254.6493,88.4223,8461.909,129.111,3352.486,815.062,"DEBRIS","SMALL",13,1268.7117863789
13.59442269,0.0514382,51.2947,197.6139,300.5064,54.6009,7415.857,105.926,1419.18,656.263,"DEBRIS","SMALL",13,381.4583355374
1.99370467,0.4210632,10.8531,200.5547,19.1649,352.8934,26666.21,722.273,31516.234,9059.915,"DEBRIS","SMALL",6,11228.159714472
15.23887643,0.0041257,60.6832,138.8468,112.7278,247.8178,6872.265,94.495,522.483,465.777,"PAYLOAD","SMALL",3,28.3529037105
15.16385918,0.0013251,97.4786,4.6066,354.0833,6.0241,6894.911,94.963,525.913,507.64,"PAYLOAD","SMALL",3,9.1364465661
15.16000827,0.0013472,97.4781,4.1631,356.326,3.7871,6896.079,94.987,527.234,508.653,"PAYLOAD","SMALL",3,9.2903976288
15.15923916,0.0013477,97.4779,4.4032,356.0635,4.049,6896.312,94.992,527.471,508.883,"PAYLOAD","SMALL",3,9.2941596824
15.15853065,0.0013402,97.478,4.9143,354.9849,5.1247,6896.527,94.996,527.635,509.149,"PAYLOAD","SMALL",3,9.2427254854
15.13063445,0.0010673,97.4735,3.6756,14.7114,345.4426,6905.001,95.171,534.236,519.496,"PAYLOAD","SMALL",3,7.3697075673
15.13231841,0.000619,97.4819,3.5573,12.7878,347.3509,6904.489,95.161,530.628,522.08,"PAYLOAD","SMALL",3,4.273878691
